[{"OBJECT_NAME":"STARLINK-5222","OBJECT_ID":"2022-136T","EPOCH":"2026-03-09T22:26:24.439776","MEAN_MOTION":15.08838992,"ECCENTRICITY":0.00013964,"INCLINATION":53.2192,"RA_OF_ASC_NODE":342.8335,"ARG_OF_PERICENTER":93.3296,"MEAN_ANOMALY":266.7856,"EPHEMERIS_TYPE":0,"CLASSIFICATION_TYPE":"U","NORAD_CAT_ID":54068,"ELEMENT_SET_NO":999,"REV_AT_EPOCH":18688,"BSTAR":6.9685583e-5,"MEAN_MOTION_DOT":8.21e-6,"MEAN_MOTION_DDOT":0},{"OBJECT_NAME":"CZ-6A DEB","OBJECT_ID":"2022-151UT","EPOCH":"2026-03-09T17:50:02.810976","MEAN_MOTION":14.9898329,"ECCENTRICITY":0.00453187,"INCLINATION":98.6222,"RA_OF_ASC_NODE":145.5138,"ARG_OF_PERICENTER":180.208,"MEAN_ANOMALY":179.9129,"EPHEMERIS_TYPE":0,"CLASSIFICATION_TYPE":"U","NORAD_CAT_ID":55003,"ELEMENT_SET_NO":999,"REV_AT_EPOCH":17561,"BSTAR":0.0047870048,"MEAN_MOTION_DOT":0.00059614,"MEAN_MOTION_DDOT":0}]
